{
    "links": {
        "self": "http://www.neowsapp.com/rest/v1/neo/3781645?api_key=iIulBulltgU6a56xZRHN4H3l9WmuAYTsLGpBGhQ2"
    },
    "id": "3781645",
    "neo_reference_id": "3781645",
    "name": "(2017 SJ10)",
    "designation": "2017 SJ10",
    "nasa_jpl_url": "http://ssd.jpl.nasa.gov/sbdb.cgi?sstr=3781645",
    "absolute_magnitude_h": 22.9,
    "estimated_diameter": {
        "kilometers": {
            "estimated_diameter_min": 0.0699125232,
            "estimated_diameter_max": 0.1563291544
        },
        "meters": {
            "estimated_diameter_min": 69.9125232246,
            "estimated_diameter_max": 156.3291544087
        },
        "miles": {
            "estimated_diameter_min": 0.0434416145,
            "estimated_diameter_max": 0.097138403
        },
        "feet": {
            "estimated_diameter_min": 229.3718026961,
            "estimated_diameter_max": 512.8909429502
        }
    },
    "is_potentially_hazardous_asteroid": false,
    "close_approach_data": [
        {
            "close_approach_date": "2017-08-11",
            "close_approach_date_full": "2017-Aug-11 21:28",
            "epoch_date_close_approach": 1502486880000,
            "relative_velocity": {
                "kilometers_per_second": "6.9499868802",
                "kilometers_per_hour": "25019.9527688798",
                "miles_per_hour": "15546.4256524187"
            },
            "miss_distance": {
                "astronomical": "0.1173752273",
                "lunar": "45.6589634197",
                "kilometers": "17559083.994845851",
                "miles": "10910708.8581047038"
            },
            "orbiting_body": "Earth"
        }
    ],
    "orbital_data": {
        "orbit_id": "4",
        "orbit_determination_date": "2017-09-30 06:51:34",
        "first_observation_date": "2017-09-17",
        "last_observation_date": "2017-09-29",
        "data_arc_in_days": 12,
        "observations_used": 46,
        "orbit_uncertainty": "8",
        "minimum_orbit_intersection": ".115311",
        "jupiter_tisserand_invariant": "3.531",
        "epoch_osculation": "2458018.5",
        "eccentricity": ".5087107881090028",
        "semi_major_axis": "2.136305293718899",
        "inclination": "7.062957436674075",
        "ascending_node_longitude": "15.83222344739904",
        "orbital_period": "1140.495042599237",
        "perihelion_distance": "1.049543744109723",
        "perihelion_argument": "289.3475665009929",
        "aphelion_distance": "3.223066843328075",
        "perihelion_time": "2457964.233981572541",
        "mean_anomaly": "17.1291990795176",
        "mean_motion": ".3156524022932573",
        "equinox": "J2000",
        "orbit_class": {
            "orbit_class_type": "AMO",
            "orbit_class_description": "Near-Earth asteroid orbits similar to that of 1221 Amor",
            "orbit_class_range": "1.017 AU < q (perihelion) < 1.3 AU"
        }
    },
    "is_sentry_object": false
}